HAWK-8C                 
1 59449U 24066H   26068.47383543  .00002400  00000+0  21518-3 0  9993
2 59449  45.6068  72.8656 0003935 260.2975  99.7462 14.98770227104860
STARLINK-34663          
1 64807U 25150T   26068.60779270  .00001928  00000+0  16930-3 0  9999
2 64807  70.0019 134.7012 0003609 271.2876  88.7869 14.98334733 36508
